[{"OBJECT_NAME":"HAWK-2B","OBJECT_ID":"2021-006CZ","EPOCH":"2026-03-09T16:13:51.664224","MEAN_MOTION":15.33301353,"ECCENTRICITY":0.00071021,"INCLINATION":97.2334,"RA_OF_ASC_NODE":114.114,"ARG_OF_PERICENTER":185.9063,"MEAN_ANOMALY":174.2098,"EPHEMERIS_TYPE":0,"CLASSIFICATION_TYPE":"U","NORAD_CAT_ID":47508,"ELEMENT_SET_NO":999,"REV_AT_EPOCH":28424,"BSTAR":0.00029650607,"MEAN_MOTION_DOT":9.474e-5,"MEAN_MOTION_DDOT":0},{"OBJECT_NAME":"STARLINK-34721","OBJECT_ID":"2025-161AA","EPOCH":"2026-03-09T21:07:46.343136","MEAN_MOTION":15.30208248,"ECCENTRICITY":0.00011796,"INCLINATION":53.16,"RA_OF_ASC_NODE":292.9834,"ARG_OF_PERICENTER":167.4427,"MEAN_ANOMALY":192.6603,"EPHEMERIS_TYPE":0,"CLASSIFICATION_TYPE":"U","NORAD_CAT_ID":65039,"ELEMENT_SET_NO":999,"REV_AT_EPOCH":3426,"BSTAR":0.00085484728,"MEAN_MOTION_DOT":0.00025051,"MEAN_MOTION_DDOT":0}]
