HAWK-2B                 
1 47508U 21006CZ  26068.67629241  .00009474  00000+0  29651-3 0  9991
2 47508  97.2334 114.1140 0007102 185.9063 174.2098 15.33301353284246
STARLINK-34721          
1 65039U 25161AA  26068.88039749  .00025051  00000+0  85485-3 0  9993
2 65039  53.1600 292.9834 0001180 167.4427 192.6603 15.30208248 34263
